{"type": "FeatureCollection", "features": [ {"type": "Feature", "properties": {"norad_id": 36160, "name": "FENGYUN 1C DEB", "group": "fengyun-1c-debris", "lat": -42.79399999681629, "lon": 5.0435571275450695, "alt_km": 844.1800207250026, "timestamp": "2025-12-17T10:52:54.641205+00:00", "meta": {"OBJECT_NAME": "FENGYUN 1C DEB", "OBJECT_ID": "1999-025DSH", "EPOCH": "2025-12-12T19:23:25.399104", "MEAN_MOTION": 14.13217835, "ECCENTRICITY": 0.0135077, "INCLINATION": 98.1387, "RA_OF_ASC_NODE": 188.429, "ARG_OF_PERICENTER": 152.2609, "MEAN_ANOMALY": 208.5855, "EPHEMERIS_TYPE": 0, "CLASSIFICATION_TYPE": "U", "NORAD_CAT_ID": 36160, "ELEMENT_SET_NO": 999, "REV_AT_EPOCH": 60053, "BSTAR": 0.00034837814, "MEAN_MOTION_DOT": 6.74e-06, "MEAN_MOTION_DDOT": 0}, "tle": {"line1": "1 36160U 99025DSH 25346.80793286  .00000674  00000+0  34838-3 0  9999", "line2": "2 36160  98.1387 188.4290 0135077 152.2609 208.5855 14.13217835600536"}}, "geometry": {"type": "Point", "coordinates": [5.0435571275450695, -42.79399999681629]}}, {"type": "Feature", "properties": {"norad_id": 36163, "name": "FENGYUN 1C DEB", "group": "fengyun-1c-debris", "lat": -51.9383955978707, "lon": 4.186152739025402, "alt_km": 730.0166685958811, "timestamp": "2025-12-17T10:52:54.641215+00:00", "meta": {"OBJECT_NAME": "FENGYUN 1C DEB", "OBJECT_ID": "1999-025DSL", "EPOCH": "2025-12-15T19:58:05.819520", "MEAN_MOTION": 14.59147721, "ECCENTRICITY": 0.00386443, "INCLINATION": 99.0781, "RA_OF_ASC_NODE": 194.1971, "ARG_OF_PERICENTER": 61.9951, "MEAN_ANOMALY": 298.5148, "EPHEMERIS_TYPE": 0, "CLASSIFICATION_TYPE": "U", "NORAD_CAT_ID": 36163, "ELEMENT_SET_NO": 999, "REV_AT_EPOCH": 89232, "BSTAR": 0.0018397324, "MEAN_MOTION_DOT": 8.71e-05, "MEAN_MOTION_DDOT": 0}, "tle": {"line1": "1 36163U 99025DSL 25349.83201180  .00008710  00000+0  18397-2 0  9995", "line2": "2 36163  99.0781 194.1971 0038644  61.9951 298.5148 14.59147721892325"}}, "geometry": {"type": "Point", "coordinates": [4.186152739025402, -51.9383955978707]}}, {"type": "Feature", "properties": {"norad_id": 36167, "name": "FENGYUN 1C DEB", "group": "fengyun-1c-debris", "lat": 20.013365887916716, "lon": 82.07522249029913, "alt_km": 711.3745294155051, "timestamp": "2025-12-17T10:52:54.641225+00:00", "meta": {"OBJECT_NAME": "FENGYUN 1C DEB", "OBJECT_ID": "1999-025DSQ", "EPOCH": "2025-12-15T00:08:52.263744", "MEAN_MOTION": 14.49271942, "ECCENTRICITY": 0.00688076, "INCLINATION": 98.8129, "RA_OF_ASC_NODE": 256.2804, "ARG_OF_PERICENTER": 237.4742, "MEAN_ANOMALY": 121.979, "EPHEMERIS_TYPE": 0, "CLASSIFICATION_TYPE": "U", "NORAD_CAT_ID": 36167, "ELEMENT_SET_NO": 999, "REV_AT_EPOCH": 67312, "BSTAR": 0.00069585373, "MEAN_MOTION_DOT": 2.684e-05, "MEAN_MOTION_DDOT": 0}, "tle": {"line1": "1 36167U 99025DSQ 25349.00616046  .00002684  00000+0  69585-3 0  9999", "line2": "2 36167  98.8129 256.2804 0068807 237.4742 121.9790 14.49271942673128"}}, "geometry": {"type": "Point", "coordinates": [82.07522249029913, 20.013365887916716]}}, {"type": "Feature", "properties": {"norad_id": 36173, "name": "FENGYUN 1C DEB", "group": "fengyun-1c-debris", "lat": 10.942379198426893, "lon": 129.87625101401017, "alt_km": 703.6294436089329, "timestamp": "2025-12-17T10:52:54.641236+00:00", "meta": {"OBJECT_NAME": "FENGYUN 1C DEB", "OBJECT_ID": "1999-025DSW", "EPOCH": "2025-12-13T15:06:11.838816", "MEAN_MOTION": 14.25174988, "ECCENTRICITY": 0.01471409, "INCLINATION": 98.2142, "RA_OF_ASC_NODE": 304.6937, "ARG_OF_PERICENTER": 182.5109, "MEAN_ANOMALY": 177.535, "EPHEMERIS_TYPE": 0, "CLASSIFICATION_TYPE": "U", "NORAD_CAT_ID": 36173, "ELEMENT_SET_NO": 999, "REV_AT_EPOCH": 59103, "BSTAR": 0.00034958587, "MEAN_MOTION_DOT": 8.78e-06, "MEAN_MOTION_DDOT": 0}, "tle": {"line1": "1 36173U 99025DSW 25347.62930369  .00000878  00000+0  34959-3 0  9999", "line2": "2 36173  98.2142 304.6937 0147140 182.5109 177.5350 14.25174988591038"}}, "geometry": {"type": "Point", "coordinates": [129.87625101401017, 10.942379198426893]}}, {"type": "Feature", "properties": {"norad_id": 36180, "name": "FENGYUN 1C DEB", "group": "fengyun-1c-debris", "lat": 70.84792852865725, "lon": 29.50604642706121, "alt_km": 728.1423617107394, "timestamp": "2025-12-17T10:52:54.641246+00:00", "meta": {"OBJECT_NAME": "FENGYUN 1C DEB", "OBJECT_ID": "1999-025DTD", "EPOCH": "2025-12-05T21:21:22.276224", "MEAN_MOTION": 14.20680074, "ECCENTRICITY": 0.02106275, "INCLINATION": 98.4572, "RA_OF_ASC_NODE": 43.7979, "ARG_OF_PERICENTER": 50.8055, "MEAN_ANOMALY": 311.1621, "EPHEMERIS_TYPE": 0, "CLASSIFICATION_TYPE": "U", "NORAD_CAT_ID": 36180, "ELEMENT_SET_NO": 999, "REV_AT_EPOCH": 70486, "BSTAR": 0.00091841135, "MEAN_MOTION_DOT": 2.432e-05, "MEAN_MOTION_DDOT": 0}, "tle": {"line1": "1 36180U 99025DTD 25339.88984116  .00002432  00000+0  91841-3 0  9996", "line2": "2 36180  98.4572  43.7979 0210627  50.8055 311.1621 14.20680074704867"}}, "geometry": {"type": "Point", "coordinates": [29.50604642706121, 70.84792852865725]}}, {"type": "Feature", "properties": {"norad_id": 36182, "name": "FENGYUN 1C DEB", "group": "fengyun-1c-debris", "lat": -6.868731601843385, "lon": 98.14639151889969, "alt_km": 788.5275474357104, "timestamp": "2025-12-17T10:52:54.641257+00:00", "meta": {"OBJECT_NAME": "FENGYUN 1C DEB", "OBJECT_ID": "1999-025DTF", "EPOCH": "2025-12-16T02:12:55.560672", "MEAN_MOTION": 14.34751534, "ECCENTRICITY": 0.00221182, "INCLINATION": 99.0884, "RA_OF_ASC_NODE": 277.82, "ARG_OF_PERICENTER": 66.524, "MEAN_ANOMALY": 293.8265, "EPHEMERIS_TYPE": 0, "CLASSIFICATION_TYPE": "U", "NORAD_CAT_ID": 36182, "ELEMENT_SET_NO": 999, "REV_AT_EPOCH": 88005, "BSTAR": 0.0010939715, "MEAN_MOTION_DOT": 3.061e-05, "MEAN_MOTION_DDOT": 0}, "tle": {"line1": "1 36182U 99025DTF 25350.09230973  .00003061  00000+0  10940-2 0  9998", "line2": "2 36182  99.0884 277.8200 0022118  66.5240 293.8265 14.34751534880056"}}, "geometry": {"type": "Point", "coordinates": [98.14639151889969, -6.868731601843385]}}, {"type": "Feature", "properties": {"norad_id": 36186, "name": "FENGYUN 1C DEB", "group": "fengyun-1c-debris", "lat": -70.66782217004521, "lon": -117.58264770829823, "alt_km": 527.3058870481345, "timestamp": "2025-12-17T10:52:54.641267+00:00", "meta": {"OBJECT_NAME": "FENGYUN 1C DEB", "OBJECT_ID": "1999-025DTK", "EPOCH": "2025-12-15T21:11:23.031744", "MEAN_MOTION": 15.12863238, "ECCENTRICITY": 0.00117449, "INCLINATION": 98.9868, "RA_OF_ASC_NODE": 213.7545, "ARG_OF_PERICENTER": 332.6772, "MEAN_ANOMALY": 45.2682, "EPHEMERIS_TYPE": 0, "CLASSIFICATION_TYPE": "U", "NORAD_CAT_ID": 36186, "ELEMENT_SET_NO": 999, "REV_AT_EPOCH": 61618, "BSTAR": 0.0071053274, "MEAN_MOTION_DOT": 0.00127217, "MEAN_MOTION_DDOT": 0}, "tle": {"line1": "1 36186U 99025DTK 25349.88290546  .00127217  00000+0  71053-2 0  9991", "line2": "2 36186  98.9868 213.7545 0011744 332.6772  45.2682 15.12863238616186"}}, "geometry": {"type": "Point", "coordinates": [-117.58264770829823, -70.66782217004521]}}, {"type": "Feature", "properties": {"norad_id": 36188, "name": "FENGYUN 1C DEB", "group": "fengyun-1c-debris", "lat": -27.255154155885602, "lon": 96.5111319154571, "alt_km": 671.3755895980112, "timestamp": "2025-12-17T10:52:54.641277+00:00", "meta": {"OBJECT_NAME": "FENGYUN 1C DEB", "OBJECT_ID": "1999-025DTM", "EPOCH": "2025-12-16T00:29:05.104608", "MEAN_MOTION": 14.60761478, "ECCENTRICITY": 0.00478894, "INCLINATION": 98.5849, "RA_OF_ASC_NODE": 90.5626, "ARG_OF_PERICENTER": 294.3883, "MEAN_ANOMALY": 65.2322, "EPHEMERIS_TYPE": 0, "CLASSIFICATION_TYPE": "U", "NORAD_CAT_ID": 36188, "ELEMENT_SET_NO": 999, "REV_AT_EPOCH": 88100, "BSTAR": 0.0017582447, "MEAN_MOTION_DOT": 8.674e-05, "MEAN_MOTION_DDOT": 0}, "tle": {"line1": "1 36188U 99025DTM 25350.02019797  .00008674  00000+0  17582-2 0  9990", "line2": "2 36188  98.5849  90.5626 0047889 294.3883  65.2322 14.60761478881003"}}, "geometry": {"type": "Point", "coordinates": [96.5111319154571, -27.255154155885602]}}, {"type": "Feature", "properties": {"norad_id": 36198, "name": "FENGYUN 1C DEB", "group": "fengyun-1c-debris", "lat": -58.60931814044746, "lon": -173.81047118169732, "alt_km": 924.9470023129061, "timestamp": "2025-12-17T10:52:54.641287+00:00", "meta": {"OBJECT_NAME": "FENGYUN 1C DEB", "OBJECT_ID": "1999-025DTX", "EPOCH": "2025-12-15T01:28:15.386880", "MEAN_MOTION": 14.07914815, "ECCENTRICITY": 0.00967011, "INCLINATION": 98.6233, "RA_OF_ASC_NODE": 18.3045, "ARG_OF_PERICENTER": 108.8601, "MEAN_ANOMALY": 252.3085, "EPHEMERIS_TYPE": 0, "CLASSIFICATION_TYPE": "U", "NORAD_CAT_ID": 36198, "ELEMENT_SET_NO": 999, "REV_AT_EPOCH": 63620, "BSTAR": 0.0011019873, "MEAN_MOTION_DOT": 1.912e-05, "MEAN_MOTION_DDOT": 0}, "tle": {"line1": "1 36198U 99025DTX 25349.06128920  .00001912  00000+0  11020-2 0  9991", "line2": "2 36198  98.6233  18.3045 0096701 108.8601 252.3085 14.07914815636200"}}, "geometry": {"type": "Point", "coordinates": [-173.81047118169732, -58.60931814044746]}}, {"type": "Feature", "properties": {"norad_id": 36199, "name": "FENGYUN 1C DEB", "group": "fengyun-1c-debris", "lat": 78.09637458806209, "lon": -123.8734377539974, "alt_km": 738.1209649477933, "timestamp": "2025-12-17T10:52:54.641297+00:00", "meta": {"OBJECT_NAME": "FENGYUN 1C DEB", "OBJECT_ID": "1999-025DTY", "EPOCH": "2025-12-14T18:36:07.375104", "MEAN_MOTION": 14.2965262, "ECCENTRICITY": 0.0092845, "INCLINATION": 98.2897, "RA_OF_ASC_NODE": 9.8178, "ARG_OF_PERICENTER": 61.5398, "MEAN_ANOMALY": 299.51, "EPHEMERIS_TYPE": 0, "CLASSIFICATION_TYPE": "U", "NORAD_CAT_ID": 36199, "ELEMENT_SET_NO": 999, "REV_AT_EPOCH": 65009, "BSTAR": 0.00030192646, "MEAN_MOTION_DOT": 7.7e-06, "MEAN_MOTION_DDOT": 0}, "tle": {"line1": "1 36199U 99025DTY 25348.77508536  .00000770  00000+0  30193-3 0  9998", "line2": "2 36199  98.2897   9.8178 0092845  61.5398 299.5100 14.29652620650099"}}, "geometry": {"type": "Point", "coordinates": [-123.8734377539974, 78.09637458806209]}}]}